DUPLEX                  
1 66906U 98067XS  26096.82414132  .00032786  00000+0  43136-3 0  9990
2 66906  51.6284 288.5303 0003474 248.4030 111.6593 15.58152788 19515
ISS OBJECT XT           
1 66907U 98067XT  26097.20413265  .00353762  00000+0  16400-2 0  9993
2 66907  51.6213 279.0115 0007960 267.9755  92.0335 15.81877089 19675
ISS OBJECT XU           
1 66908U 98067XU  26096.88261837  .00338417  00000+0  15560-2 0  9999
2 66908  51.6222 280.6111 0007852 263.6520  96.3588 15.82094605 19621
SILVERSAT               
1 66909U 98067XV  26096.79926964  .00553785  12879-3  17854-2 0  9995
2 66909  51.6175 279.2790 0009832 271.3466  88.6413 15.90235811 19638
ISS OBJECT XW           
1 66910U 98067XW  26096.90589023  .00269738  00000+0  14155-2 0  9993
2 66910  51.6196 280.7631 0007907 259.8637 100.1472 15.79400172 19621
ISS OBJECT XX           
1 66911U 98067XX  26096.68896384  .01368134  10998-2  20748-2 0  9996
2 66911  51.6129 277.7375 0012439 279.0262  80.9342 16.03960979 19639
ISS OBJECT XY           
1 66912U 98067XY  26096.77647198  .00141515  00000+0  11337-2 0  9999
2 66912  51.6250 284.4424 0005347 256.7628 103.2773 15.70068186 19553
KNACKSAT-2              
1 67683U 98067XZ  26096.78336249  .00045246  00000+0  68034-3 0  9999
2 67683  51.6313 292.0095 0010730 290.3206  69.6632 15.54329078  9152
CORAL                   
1 67684U 98067YA  26096.56051478  .00111135  00000+0  13546-2 0  9992
2 67684  51.6283 292.0210 0013861 280.0106  79.9323 15.59527751  9133
GXIBA-1                 
1 67685U 98067YB  26096.96271926  .00052513  00000+0  76776-3 0  9998
2 67685  51.6300 290.9572 0012664 287.6010  72.3597 15.55005272  9189
UITMSAT-2               
1 67686U 98067YC  26096.81336405  .00071267  00000+0  99387-3 0  9997
2 67686  51.6306 291.4622 0009764 262.3024  97.6859 15.56195454  9162
HMU-SAT2                
1 67687U 98067YD  26097.22632391  .00054905  00000+0  81120-3 0  9993
2 67687  51.6309 289.7214 0009182 266.7679  93.2261 15.54743517  9145
LEOPARD                 
1 67688U 98067YE  26096.56589899  .00063290  00000+0  90359-3 0  9995
2 67688  51.6301 292.8109 0009406 262.0799  97.9124 15.55613907  9045
CREW DRAGON 12          
1 67796U 26031A   26097.03736088  .00008117  00000+0  15629-3 0  9998
2 67796  51.6329 292.2032 0006328 281.7211  78.3067 15.48811802560745
PROGRESS-MS 33          
1 68319U 26058A   26097.03736053  .00008175  00000+0  15735-3 0  9993
2 68319  51.6332 292.2025 0006343 281.0633  78.9642 15.48812043  2240
