[{"OBJECT_NAME":"DUPLEX","OBJECT_ID":"1998-067XS","EPOCH":"2026-04-06T19:46:45.810048","MEAN_MOTION":15.58152788,"ECCENTRICITY":0.0003474,"INCLINATION":51.6284,"RA_OF_ASC_NODE":288.5303,"ARG_OF_PERICENTER":248.403,"MEAN_ANOMALY":111.6593,"EPHEMERIS_TYPE":0,"CLASSIFICATION_TYPE":"U","NORAD_CAT_ID":66906,"ELEMENT_SET_NO":999,"REV_AT_EPOCH":1951,"BSTAR":0.00043135969,"MEAN_MOTION_DOT":0.00032786,"MEAN_MOTION_DDOT":0},{"OBJECT_NAME":"ISS OBJECT XT","OBJECT_ID":"1998-067XT","EPOCH":"2026-04-07T04:53:57.060960","MEAN_MOTION":15.81877089,"ECCENTRICITY":0.00079603,"INCLINATION":51.6213,"RA_OF_ASC_NODE":279.0115,"ARG_OF_PERICENTER":267.9755,"MEAN_ANOMALY":92.0335,"EPHEMERIS_TYPE":0,"CLASSIFICATION_TYPE":"U","NORAD_CAT_ID":66907,"ELEMENT_SET_NO":999,"REV_AT_EPOCH":1967,"BSTAR":0.0016400229,"MEAN_MOTION_DOT":0.00353762,"MEAN_MOTION_DDOT":0},{"OBJECT_NAME":"ISS OBJECT XU","OBJECT_ID":"1998-067XU","EPOCH":"2026-04-06T21:10:58.227168","MEAN_MOTION":15.82094605,"ECCENTRICITY":0.0007852,"INCLINATION":51.6222,"RA_OF_ASC_NODE":280.6111,"ARG_OF_PERICENTER":263.652,"MEAN_ANOMALY":96.3588,"EPHEMERIS_TYPE":0,"CLASSIFICATION_TYPE":"U","NORAD_CAT_ID":66908,"ELEMENT_SET_NO":999,"REV_AT_EPOCH":1962,"BSTAR":0.001556,"MEAN_MOTION_DOT":0.00338417,"MEAN_MOTION_DDOT":0},{"OBJECT_NAME":"SILVERSAT","OBJECT_ID":"1998-067XV","EPOCH":"2026-04-06T19:10:56.896896","MEAN_MOTION":15.90235811,"ECCENTRICITY":0.00098322,"INCLINATION":51.6175,"RA_OF_ASC_NODE":279.279,"ARG_OF_PERICENTER":271.3466,"MEAN_ANOMALY":88.6413,"EPHEMERIS_TYPE":0,"CLASSIFICATION_TYPE":"U","NORAD_CAT_ID":66909,"ELEMENT_SET_NO":999,"REV_AT_EPOCH":1963,"BSTAR":0.0017853927,"MEAN_MOTION_DOT":0.00553785,"MEAN_MOTION_DDOT":0.00012879118},{"OBJECT_NAME":"ISS OBJECT XW","OBJECT_ID":"1998-067XW","EPOCH":"2026-04-06T21:44:28.915872","MEAN_MOTION":15.79400172,"ECCENTRICITY":0.0007907,"INCLINATION":51.6196,"RA_OF_ASC_NODE":280.7631,"ARG_OF_PERICENTER":259.8637,"MEAN_ANOMALY":100.1472,"EPHEMERIS_TYPE":0,"CLASSIFICATION_TYPE":"U","NORAD_CAT_ID":66910,"ELEMENT_SET_NO":999,"REV_AT_EPOCH":1962,"BSTAR":0.0014155,"MEAN_MOTION_DOT":0.00269738,"MEAN_MOTION_DDOT":0},{"OBJECT_NAME":"ISS OBJECT XX","OBJECT_ID":"1998-067XX","EPOCH":"2026-04-06T16:32:06.475776","MEAN_MOTION":16.03960979,"ECCENTRICITY":0.00124396,"INCLINATION":51.6129,"RA_OF_ASC_NODE":277.7375,"ARG_OF_PERICENTER":279.0262,"MEAN_ANOMALY":80.9342,"EPHEMERIS_TYPE":0,"CLASSIFICATION_TYPE":"U","NORAD_CAT_ID":66911,"ELEMENT_SET_NO":999,"REV_AT_EPOCH":1963,"BSTAR":0.0020747969,"MEAN_MOTION_DOT":0.01368134,"MEAN_MOTION_DDOT":0.0010997794},{"OBJECT_NAME":"ISS OBJECT XY","OBJECT_ID":"1998-067XY","EPOCH":"2026-04-06T18:38:07.179072","MEAN_MOTION":15.70068186,"ECCENTRICITY":0.00053476,"INCLINATION":51.625,"RA_OF_ASC_NODE":284.4424,"ARG_OF_PERICENTER":256.7628,"MEAN_ANOMALY":103.2773,"EPHEMERIS_TYPE":0,"CLASSIFICATION_TYPE":"U","NORAD_CAT_ID":66912,"ELEMENT_SET_NO":999,"REV_AT_EPOCH":1955,"BSTAR":0.0011336625,"MEAN_MOTION_DOT":0.00141515,"MEAN_MOTION_DDOT":0},{"OBJECT_NAME":"KNACKSAT-2","OBJECT_ID":"1998-067XZ","EPOCH":"2026-04-06T18:48:02.519136","MEAN_MOTION":15.54329078,"ECCENTRICITY":0.00107302,"INCLINATION":51.6313,"RA_OF_ASC_NODE":292.0095,"ARG_OF_PERICENTER":290.3206,"MEAN_ANOMALY":69.6632,"EPHEMERIS_TYPE":0,"CLASSIFICATION_TYPE":"U","NORAD_CAT_ID":67683,"ELEMENT_SET_NO":999,"REV_AT_EPOCH":915,"BSTAR":0.00068033928,"MEAN_MOTION_DOT":0.00045246,"MEAN_MOTION_DDOT":0},{"OBJECT_NAME":"CORAL","OBJECT_ID":"1998-067YA","EPOCH":"2026-04-06T13:27:08.476992","MEAN_MOTION":15.59527751,"ECCENTRICITY":0.00138617,"INCLINATION":51.6283,"RA_OF_ASC_NODE":292.021,"ARG_OF_PERICENTER":280.0106,"MEAN_ANOMALY":79.9323,"EPHEMERIS_TYPE":0,"CLASSIFICATION_TYPE":"U","NORAD_CAT_ID":67684,"ELEMENT_SET_NO":999,"REV_AT_EPOCH":913,"BSTAR":0.0013546033,"MEAN_MOTION_DOT":0.00111135,"MEAN_MOTION_DDOT":0},{"OBJECT_NAME":"GXIBA-1","OBJECT_ID":"1998-067YB","EPOCH":"2026-04-06T23:06:18.944064","MEAN_MOTION":15.55005272,"ECCENTRICITY":0.0012664,"INCLINATION":51.63,"RA_OF_ASC_NODE":290.9572,"ARG_OF_PERICENTER":287.601,"MEAN_ANOMALY":72.3597,"EPHEMERIS_TYPE":0,"CLASSIFICATION_TYPE":"U","NORAD_CAT_ID":67685,"ELEMENT_SET_NO":999,"REV_AT_EPOCH":918,"BSTAR":0.00076776,"MEAN_MOTION_DOT":0.00052513,"MEAN_MOTION_DDOT":0},{"OBJECT_NAME":"UITMSAT-2","OBJECT_ID":"1998-067YC","EPOCH":"2026-04-06T19:31:14.653920","MEAN_MOTION":15.56195454,"ECCENTRICITY":0.00097643,"INCLINATION":51.6306,"RA_OF_ASC_NODE":291.4622,"ARG_OF_PERICENTER":262.3024,"MEAN_ANOMALY":97.6859,"EPHEMERIS_TYPE":0,"CLASSIFICATION_TYPE":"U","NORAD_CAT_ID":67686,"ELEMENT_SET_NO":999,"REV_AT_EPOCH":916,"BSTAR":0.00099386837,"MEAN_MOTION_DOT":0.00071267,"MEAN_MOTION_DDOT":0},{"OBJECT_NAME":"HMU-SAT2","OBJECT_ID":"1998-067YD","EPOCH":"2026-04-07T05:25:54.385824","MEAN_MOTION":15.54743517,"ECCENTRICITY":0.00091829,"INCLINATION":51.6309,"RA_OF_ASC_NODE":289.7214,"ARG_OF_PERICENTER":266.7679,"MEAN_ANOMALY":93.2261,"EPHEMERIS_TYPE":0,"CLASSIFICATION_TYPE":"U","NORAD_CAT_ID":67687,"ELEMENT_SET_NO":999,"REV_AT_EPOCH":914,"BSTAR":0.00081119944,"MEAN_MOTION_DOT":0.00054905,"MEAN_MOTION_DDOT":0},{"OBJECT_NAME":"LEOPARD","OBJECT_ID":"1998-067YE","EPOCH":"2026-04-06T13:34:53.672736","MEAN_MOTION":15.55613907,"ECCENTRICITY":0.00094065,"INCLINATION":51.6301,"RA_OF_ASC_NODE":292.8109,"ARG_OF_PERICENTER":262.0799,"MEAN_ANOMALY":97.9124,"EPHEMERIS_TYPE":0,"CLASSIFICATION_TYPE":"U","NORAD_CAT_ID":67688,"ELEMENT_SET_NO":999,"REV_AT_EPOCH":904,"BSTAR":0.00090359495,"MEAN_MOTION_DOT":0.0006329,"MEAN_MOTION_DDOT":0},{"OBJECT_NAME":"CREW DRAGON 12","OBJECT_ID":"2026-031A","EPOCH":"2026-04-07T00:53:47.980032","MEAN_MOTION":15.48811802,"ECCENTRICITY":0.00063287,"INCLINATION":51.6329,"RA_OF_ASC_NODE":292.2032,"ARG_OF_PERICENTER":281.7211,"MEAN_ANOMALY":78.3067,"EPHEMERIS_TYPE":0,"CLASSIFICATION_TYPE":"U","NORAD_CAT_ID":67796,"ELEMENT_SET_NO":999,"REV_AT_EPOCH":56074,"BSTAR":0.00015629275,"MEAN_MOTION_DOT":8.117e-5,"MEAN_MOTION_DDOT":0},{"OBJECT_NAME":"PROGRESS-MS 33","OBJECT_ID":"2026-058A","EPOCH":"2026-04-07T00:53:47.949792","MEAN_MOTION":15.48812043,"ECCENTRICITY":0.00063437,"INCLINATION":51.6332,"RA_OF_ASC_NODE":292.2025,"ARG_OF_PERICENTER":281.0633,"MEAN_ANOMALY":78.9642,"EPHEMERIS_TYPE":0,"CLASSIFICATION_TYPE":"U","NORAD_CAT_ID":68319,"ELEMENT_SET_NO":999,"REV_AT_EPOCH":224,"BSTAR":0.00015734889,"MEAN_MOTION_DOT":8.175e-5,"MEAN_MOTION_DDOT":0}]
